CCSDS_OEM_VERS = 1.0
CREATION_DATE  = 2017-05-11T11:56:09
ORIGINATOR     = GMAT USER

META_START
OBJECT_NAME          = MOPSSat_alt_35785_km_RAAN_270_065
OBJECT_ID            = SatId
CENTER_NAME          = Earth
REF_FRAME            = EME2000
TIME_SYSTEM          = UTC
START_TIME           = 2017-01-01T00:00:00.000
USEABLE_START_TIME   = 2017-01-01T00:00:00.000
USEABLE_STOP_TIME    = 2017-01-02T00:00:00.000
STOP_TIME            = 2017-01-02T00:00:00.000
INTERPOLATION        = Lagrange
INTERPOLATION_DEGREE = 7 
META_STOP


                                                                                   

2017-01-01T23:50:00.000  -1.081472980874174e+03  -4.214573251465553e+04  -1.871026749757604e+02   3.027226762794236e+00  -8.003964112609870e-02   5.335981599148436e-01
2017-01-01T23:50:10.000  -1.051200428303577e+03  -4.214652170183843e+04  -1.817666442849938e+02   3.027283540772119e+00  -7.779778983855509e-02   5.336079411165644e-01
2017-01-01T23:50:20.000  -1.020927316275802e+03  -4.214728847029345e+04  -1.764305172494590e+02   3.027338708478939e+00  -7.555589720980951e-02   5.336174384307679e-01
2017-01-01T23:50:30.000  -9.906536606560913e+02  -4.214803281961929e+04  -1.710942966661731e+02   3.027392265885757e+00  -7.331396441497820e-02   5.336266518524876e-01
2017-01-01T23:50:40.000  -9.603794772248406e+02  -4.214875474942918e+04  -1.657579853171958e+02   3.027444212964680e+00  -7.107199262289406e-02   5.336355813769391e-01
2017-01-01T23:50:50.000  -9.301047820696027e+02  -4.214945425933842e+04  -1.604215860387272e+02   3.027494549687962e+00  -6.882998302513695e-02   5.336442269993666e-01
2017-01-01T23:51:00.000  -8.998295912940586e+02  -4.215013134897444e+04  -1.550851016698091e+02   3.027543276028731e+00  -6.658793681448136e-02   5.336525887151695e-01
2017-01-01T23:51:10.000  -8.695539210179824e+02  -4.215078601797564e+04  -1.497485350523181e+02   3.027590391960903e+00  -6.434585518489358e-02   5.336606665198848e-01
2017-01-01T23:51:20.000  -8.392777876684040e+02  -4.215141826598804e+04  -1.444118890822884e+02   3.027635897458936e+00  -6.210373935309415e-02   5.336684604091489e-01
2017-01-01T23:51:30.000  -8.090012075874354e+02  -4.215202809267092e+04  -1.390751666407848e+02   3.027679792498248e+00  -5.986159052951522e-02   5.336759703787654e-01
2017-01-01T23:51:40.000  -7.787241971867442e+02  -4.215261549769429e+04  -1.337383706211307e+02   3.027722077055018e+00  -5.761940992973997e-02   5.336831964246734e-01
2017-01-01T23:51:50.000  -7.484467722643020e+02  -4.215318048075213e+04  -1.284015038084747e+02   3.027762751107161e+00  -5.537719872390418e-02   5.336901385431138e-01
2017-01-01T23:52:00.000  -7.181689486876132e+02  -4.215372304154892e+04  -1.230645690002203e+02   3.027801814633336e+00  -5.313495808729314e-02   5.336967967304586e-01
2017-01-01T23:52:10.000  -6.878907422392433e+02  -4.215424317980310e+04  -1.177275689787980e+02   3.027839267613211e+00  -5.089268918890215e-02   5.337031709832569e-01
2017-01-01T23:52:20.000  -6.576121690088969e+02  -4.215474089523718e+04  -1.123905065807747e+02   3.027875110026744e+00  -4.865039322047187e-02   5.337092612981121e-01
2017-01-01T23:52:30.000  -6.273332451023257e+02  -4.215521618758600e+04  -1.070533846455451e+02   3.027909341854775e+00  -4.640807137493167e-02   5.337150676717829e-01
2017-01-01T23:52:40.000  -5.970539866413036e+02  -4.215566905659540e+04  -1.017162060153264e+02   3.027941963078942e+00  -4.416572484639759e-02   5.337205901011682e-01
2017-01-01T23:52:50.000  -5.667744100548049e+02  -4.215609950202093e+04  -9.637897358648279e+01   3.027972973681574e+00  -4.192335485173570e-02   5.337258285832920e-01
2017-01-01T23:53:00.000  -5.364945316868024e+02  -4.215650752363079e+04  -9.104169024039469e+01   3.028002373645911e+00  -3.968096260151745e-02   5.337307831153379e-01
2017-01-01T23:53:10.000  -5.062143679536888e+02  -4.215689312120438e+04  -8.570435887120588e+01   3.028030162955996e+00  -3.743854931167744e-02   5.337354536946313e-01
2017-01-01T23:53:20.000  -4.759339346495062e+02  -4.215725629454106e+04  -8.036698226336043e+01   3.028056341597312e+00  -3.519611615206205e-02   5.337398403187474e-01
2017-01-01T23:53:30.000  -4.456532476424580e+02  -4.215759704345106e+04  -7.502956321437304e+01   3.028080909556118e+00  -3.295366429800986e-02   5.337439429853984e-01
2017-01-01T23:53:40.000  -4.153723226951048e+02  -4.215791536775815e+04  -6.969210450313585e+01   3.028103866819647e+00  -3.071119491703618e-02   5.337477616924680e-01
2017-01-01T23:53:50.000  -3.850911759478325e+02  -4.215821126729189e+04  -6.435460897513725e+01   3.028125213375549e+00  -2.846870920463652e-02   5.337512964379154e-01
2017-01-01T23:54:00.000  -3.548098235198759e+02  -4.215848474189442e+04  -5.901707947213580e+01   3.028144949212377e+00  -2.622620835474021e-02   5.337545472198596e-01
2017-01-01T23:54:10.000  -3.245282816012925e+02  -4.215873579141880e+04  -5.367951884837249e+01   3.028163074319467e+00  -2.398369356652156e-02   5.337575140365582e-01
2017-01-01T23:54:20.000  -2.942465664173214e+02  -4.215896441573093e+04  -4.834192996428797e+01   3.028179588687081e+00  -2.174116604176046e-02   5.337601968864317e-01
2017-01-01T23:54:30.000  -2.639646942114128e+02  -4.215917061470845e+04  -4.300431568353150e+01   3.028194492306318e+00  -1.949862698358553e-02   5.337625957680496e-01
2017-01-01T23:54:40.000  -2.336826812089805e+02  -4.215935438824096e+04  -3.766667886657191e+01   3.028207785169145e+00  -1.725607759378994e-02   5.337647106801320e-01
2017-01-01T23:54:50.000  -2.034005436004519e+02  -4.215951573623143e+04  -3.232902236770959e+01   3.028219467268483e+00  -1.501351907157602e-02   5.337665416215696e-01
2017-01-01T23:55:00.000  -1.731182975056003e+02  -4.215965465859488e+04  -2.699134902878981e+01   3.028229538598123e+00  -1.277095261091396e-02   5.337680885914042e-01
2017-01-01T23:55:10.000  -1.428359590655335e+02  -4.215977115525852e+04  -2.165366169541699e+01   3.028237999152725e+00  -1.052837940735408e-02   5.337693515888328e-01
2017-01-01T23:55:20.000  -1.125535440436633e+02  -4.215986522616110e+04  -1.631596314662011e+01   3.028244848927790e+00  -8.285800628476359e-03   5.337703306131950e-01
2017-01-01T23:55:30.000  -8.227106830923124e+01  -4.215993687125327e+04  -1.097825618008070e+01   3.028250087919666e+00  -6.043217449698235e-03   5.337710256639829e-01
2017-01-01T23:55:40.000  -5.198854765455344e+01  -4.215998609049770e+04  -5.640543579919820e+00   3.028253716125564e+00  -3.800631040740561e-03   5.337714367408400e-01
2017-01-01T23:55:50.000  -2.170599850303153e+01  -4.216001288386765e+04  -3.028282414946821e-01   3.028255733543458e+00  -1.558042618059675e-03   5.337715638435482e-01
2017-01-01T23:56:00.000   8.576562798874955e+00  -4.216001725134863e+04   5.034886953400985e+00   3.028256140172203e+00   6.845466075858938e-04   5.337714069720446e-01
2017-01-01T23:56:10.000   3.885911979891164e+01  -4.215999919293766e+04   1.037259910432699e+01   3.028254936011479e+00   2.927135417602780e-03   5.337709661264128e-01
2017-01-01T23:56:20.000   6.914165642256737e+01  -4.215995870864567e+04   1.571030537742713e+01   3.028252121061962e+00   5.169722621371419e-03   5.337702413069079e-01
2017-01-01T23:56:30.000   9.942415657406616e+01  -4.215989579849500e+04   2.104800293509830e+01   3.028247695325155e+00   7.412307026697299e-03   5.337692325139340e-01
2017-01-01T23:56:40.000   1.297066042283714e+02  -4.215981046252029e+04   2.638568895220757e+01   3.028241658803441e+00   9.654887446624400e-03   5.337679397480460e-01
2017-01-01T23:56:50.000   1.599889833955420e+02  -4.215970270076662e+04   3.172336060980930e+01   3.028234011499957e+00   1.189746269679554e-02   5.337663630099344e-01
2017-01-01T23:57:00.000   1.902712781037922e+02  -4.215957251329121e+04   3.706101509215941e+01   3.028224753418703e+00   1.414003159419791e-02   5.337645023004409e-01
2017-01-01T23:57:10.000   2.205534723632620e+02  -4.215941990016324e+04   4.239864958032935e+01   3.028213884564551e+00   1.638259295448003e-02   5.337623576205599e-01
2017-01-01T23:57:20.000   2.508355501490690e+02  -4.215924486146273e+04   4.773626124921858e+01   3.028201404943144e+00   1.862514559069662e-02   5.337599289714240e-01
2017-01-01T23:57:30.000   2.811174953656746e+02  -4.215904739728248e+04   5.307384726127399e+01   3.028187314561043e+00   2.086768831066986e-02   5.337572163543267e-01
2017-01-01T23:57:40.000   3.113992919388830e+02  -4.215882750772657e+04   5.841140478270578e+01   3.028171613425624e+00   2.311021992380226e-02   5.337542197707055e-01
2017-01-01T23:57:50.000   3.416809234168579e+02  -4.215858519291566e+04   6.374893091316156e+01   3.028154301545444e+00   2.535273921152984e-02   5.337509392222097e-01
2017-01-01T23:58:00.000   3.719623734536331e+02  -4.215832045298112e+04   6.908642277095140e+01   3.028135378929842e+00   2.759524496312879e-02   5.337473747106248e-01
2017-01-01T23:58:10.000   4.022436256293191e+02  -4.215803328806714e+04   7.442387746135675e+01   3.028114845589069e+00   2.983773596240068e-02   5.337435262378979e-01
2017-01-01T23:58:20.000   4.325246641466596e+02  -4.215772369832412e+04   7.976129219940748e+01   3.028092701533828e+00   3.208021103925629e-02   5.337393938060512e-01
2017-01-01T23:58:30.000   4.628054731362505e+02  -4.215739168391495e+04   8.509866418741790e+01   3.028068946775718e+00   3.432266901826333e-02   5.337349774172654e-01
2017-01-01T23:58:40.000   4.930860367347495e+02  -4.215703724501425e+04   9.043599062877210e+01   3.028043581327179e+00   3.656510872443824e-02   5.337302770738694e-01
2017-01-01T23:58:50.000   5.233663390016942e+02  -4.215666038180897e+04   9.577326871326218e+01   3.028016605201542e+00   3.880752897708622e-02   5.337252927783499e-01
2017-01-01T23:59:00.000   5.536463638541497e+02  -4.215626109449917e+04   1.011104956055689e+02   3.027988018413073e+00   4.104992858496136e-02   5.337200245333596e-01
